{
  "type": "FeatureCollection",
  "features": [
    {
      "type": "Feature",
      "properties": {
        "norad_id": 33693,
        "name": "FENGYUN 1C DEB",
        "group": "fengyun-1c-debris",
        "lat": 59.71735508240844,
        "lon": 6.434255153541341,
        "alt_km": 1107.0416671069634,
        "timestamp": "2025-12-18T19:29:52.830914+00:00",
        "meta_object_name": "FENGYUN 1C DEB",
        "meta_object_id": "1999-025DGE",
        "meta_epoch": "2025-12-16T10:53:33.885024",
        "meta_mean_motion": 13.71323317,
        "meta_eccentricity": 0.02261218,
        "meta_inclination": 99.214,
        "meta_ra_of_asc_node": 168.0309,
        "meta_arg_of_pericenter": 349.0928,
        "meta_mean_anomaly": 10.5362,
        "meta_ephemeris_type": 0,
        "meta_classification_type": "U",
        "meta_norad_cat_id": 33693,
        "meta_element_set_no": 999,
        "meta_rev_at_epoch": 88282,
        "meta_bstar": 0.0012847057,
        "meta_mean_motion_dot": 1.34e-05,
        "meta_mean_motion_ddot": 0,
        "tle_line1": "1 33693U 99025DGE 25350.45386441  .00001340  00000+0  12847-2 0  9990",
        "tle_line2": "2 33693  99.2140 168.0309 0226121 349.0928  10.5362 13.71323317882823"
      },
      "geometry": {
        "type": "Point",
        "coordinates": [
          6.434255153541341,
          59.71735508240844
        ]
      }
    },
    {
      "type": "Feature",
      "properties": {
        "norad_id": 33698,
        "name": "FENGYUN 1C DEB",
        "group": "fengyun-1c-debris",
        "lat": 12.079446481967725,
        "lon": 135.8899635050166,
        "alt_km": 625.3160713955513,
        "timestamp": "2025-12-18T19:29:52.830924+00:00",
        "meta_object_name": "FENGYUN 1C DEB",
        "meta_object_id": "1999-025DGK",
        "meta_epoch": "2025-12-17T03:08:00.198240",
        "meta_mean_motion": 14.55728142,
        "meta_eccentricity": 0.01375233,
        "meta_inclination": 99.6214,
        "meta_ra_of_asc_node": 311.8731,
        "meta_arg_of_pericenter": 204.7443,
        "meta_mean_anomaly": 154.7112,
        "meta_ephemeris_type": 0,
        "meta_classification_type": "U",
        "meta_norad_cat_id": 33698,
        "meta_element_set_no": 999,
        "meta_rev_at_epoch": 95700,
        "meta_bstar": 0.00018900587,
        "meta_mean_motion_dot": 8.7e-06,
        "meta_mean_motion_ddot": 0,
        "tle_line1": "1 33698U 99025DGK 25351.13055785  .00000870  00000+0  18901-3 0  9990",
        "tle_line2": "2 33698  99.6214 311.8731 0137523 204.7443 154.7112 14.55728142957002"
      },
      "geometry": {
        "type": "Point",
        "coordinates": [
          135.8899635050166,
          12.079446481967725
        ]
      }
    },
    {
      "type": "Feature",
      "properties": {
        "norad_id": 33701,
        "name": "FENGYUN 1C DEB",
        "group": "fengyun-1c-debris",
        "lat": 25.811507333181233,
        "lon": 131.13842520668035,
        "alt_km": 792.665587256095,
        "timestamp": "2025-12-18T19:29:52.830934+00:00",
        "meta_object_name": "FENGYUN 1C DEB",
        "meta_object_id": "1999-025DGN",
        "meta_epoch": "2025-11-19T19:29:54.481632",
        "meta_mean_motion": 14.02181122,
        "meta_eccentricity": 0.01331995,
        "meta_inclination": 98.6598,
        "meta_ra_of_asc_node": 279.346,
        "meta_arg_of_pericenter": 252.9525,
        "meta_mean_anomaly": 105.7013,
        "meta_ephemeris_type": 0,
        "meta_classification_type": "U",
        "meta_norad_cat_id": 33701,
        "meta_element_set_no": 999,
        "meta_rev_at_epoch": 90184,
        "meta_bstar": 0.0018411078,
        "meta_mean_motion_dot": 3.003e-05,
        "meta_mean_motion_ddot": 0,
        "tle_line1": "1 33701U 99025DGN 25323.81243613  .00003003  00000+0  18411-2 0  9994",
        "tle_line2": "2 33701  98.6598 279.3460 0133199 252.9525 105.7013 14.02181122901849"
      },
      "geometry": {
        "type": "Point",
        "coordinates": [
          131.13842520668035,
          25.811507333181233
        ]
      }
    },
    {
      "type": "Feature",
      "properties": {
        "norad_id": 33710,
        "name": "FENGYUN 1C DEB",
        "group": "fengyun-1c-debris",
        "lat": 35.642151470491534,
        "lon": 85.14945908786781,
        "alt_km": 853.7317681237937,
        "timestamp": "2025-12-18T19:29:52.830944+00:00",
        "meta_object_name": "FENGYUN 1C DEB",
        "meta_object_id": "1999-025DGX",
        "meta_epoch": "2025-12-11T05:18:37.844640",
        "meta_mean_motion": 14.11630786,
        "meta_eccentricity": 0.00561161,
        "meta_inclination": 98.9793,
        "meta_ra_of_asc_node": 84.0646,
        "meta_arg_of_pericenter": 151.6019,
        "meta_mean_anomaly": 208.823,
        "meta_ephemeris_type": 0,
        "meta_classification_type": "U",
        "meta_norad_cat_id": 33710,
        "meta_element_set_no": 999,
        "meta_rev_at_epoch": 67635,
        "meta_bstar": 0.0016514968,
        "meta_mean_motion_dot": 3.003e-05,
        "meta_mean_motion_ddot": 0,
        "tle_line1": "1 33710U 99025DGX 25345.22127135  .00003003  00000+0  16515-2 0  9996",
        "tle_line2": "2 33710  98.9793  84.0646 0056116 151.6019 208.8230 14.11630786676358"
      },
      "geometry": {
        "type": "Point",
        "coordinates": [
          85.14945908786781,
          35.642151470491534
        ]
      }
    },
    {
      "type": "Feature",
      "properties": {
        "norad_id": 33711,
        "name": "FENGYUN 1C DEB",
        "group": "fengyun-1c-debris",
        "lat": -50.37712563867004,
        "lon": 57.58156138550611,
        "alt_km": 887.9091139484808,
        "timestamp": "2025-12-18T19:29:52.830954+00:00",
        "meta_object_name": "FENGYUN 1C DEB",
        "meta_object_id": "1999-025DGY",
        "meta_epoch": "2025-12-18T02:44:12.833952",
        "meta_mean_motion": 14.00926129,
        "meta_eccentricity": 0.00960984,
        "meta_inclination": 99.1818,
        "meta_ra_of_asc_node": 45.6145,
        "meta_arg_of_pericenter": 33.4274,
        "meta_mean_anomaly": 356.2165,
        "meta_ephemeris_type": 0,
        "meta_classification_type": "U",
        "meta_norad_cat_id": 33711,
        "meta_element_set_no": 999,
        "meta_rev_at_epoch": 92007,
        "meta_bstar": 0.00038891969,
        "meta_mean_motion_dot": 5.6e-06,
        "meta_mean_motion_ddot": 0,
        "tle_line1": "1 33711U 99025DGY 25352.11403743  .00000560  00000+0  38892-3 0  9993",
        "tle_line2": "2 33711  99.1818  45.6145 0096098  33.4274 356.2165 14.00926129920073"
      },
      "geometry": {
        "type": "Point",
        "coordinates": [
          57.58156138550611,
          -50.37712563867004
        ]
      }
    },
    {
      "type": "Feature",
      "properties": {
        "norad_id": 33716,
        "name": "FENGYUN 1C DEB",
        "group": "fengyun-1c-debris",
        "lat": -41.421103044553234,
        "lon": 90.61537132716919,
        "alt_km": 820.4875696698437,
        "timestamp": "2025-12-18T19:29:52.830964+00:00",
        "meta_object_name": "FENGYUN 1C DEB",
        "meta_object_id": "1999-025DHD",
        "meta_epoch": "2025-12-15T13:21:26.837568",
        "meta_mean_motion": 14.32672501,
        "meta_eccentricity": 0.00934659,
        "meta_inclination": 98.8741,
        "meta_ra_of_asc_node": 275.2055,
        "meta_arg_of_pericenter": 349.6765,
        "meta_mean_anomaly": 10.2496,
        "meta_ephemeris_type": 0,
        "meta_classification_type": "U",
        "meta_norad_cat_id": 33716,
        "meta_element_set_no": 999,
        "meta_rev_at_epoch": 65198,
        "meta_bstar": 0.00019083481,
        "meta_mean_motion_dot": 4.97e-06,
        "meta_mean_motion_ddot": 0,
        "tle_line1": "1 33716U 99025DHD 25349.55656062  .00000497  00000+0  19083-3 0  9996",
        "tle_line2": "2 33716  98.8741 275.2055 0093465 349.6765  10.2496 14.32672501651984"
      },
      "geometry": {
        "type": "Point",
        "coordinates": [
          90.61537132716919,
          -41.421103044553234
        ]
      }
    },
    {
      "type": "Feature",
      "properties": {
        "norad_id": 33718,
        "name": "FENGYUN 1C DEB",
        "group": "fengyun-1c-debris",
        "lat": 39.85453120744442,
        "lon": -91.98639195419614,
        "alt_km": 930.9094515716142,
        "timestamp": "2025-12-18T19:29:52.830973+00:00",
        "meta_object_name": "FENGYUN 1C DEB",
        "meta_object_id": "1999-025DHF",
        "meta_epoch": "2025-12-18T00:04:25.262688",
        "meta_mean_motion": 14.0809831,
        "meta_eccentricity": 0.00981974,
        "meta_inclination": 99.6596,
        "meta_ra_of_asc_node": 78.9743,
        "meta_arg_of_pericenter": 305.2274,
        "meta_mean_anomaly": 53.9731,
        "meta_ephemeris_type": 0,
        "meta_classification_type": "U",
        "meta_norad_cat_id": 33718,
        "meta_element_set_no": 999,
        "meta_rev_at_epoch": 69260,
        "meta_bstar": 0.0011739405,
        "meta_mean_motion_dot": 2.039e-05,
        "meta_mean_motion_ddot": 0,
        "tle_line1": "1 33718U 99025DHF 25352.00307017  .00002039  00000+0  11739-2 0  9998",
        "tle_line2": "2 33718  99.6596  78.9743 0098197 305.2274  53.9731 14.08098310692608"
      },
      "geometry": {
        "type": "Point",
        "coordinates": [
          -91.98639195419614,
          39.85453120744442
        ]
      }
    }
  ]
}